     2.11           N: GPS NAV DATA     G                   RINEX VERSION / TYPE
LEICA GEO OFFICE 8.4                    29-9-20 09:16       PGM / RUN BY / DATE
    18                                                      LEAP SECONDS
                                                            END OF HEADER
18 20  9 28  8  0  0.0 2.980767749250D-04 6.480149750132D-12 0.000000000000D+00
    1.680000000000D+02 4.206250000000D+01 4.680909437837D-09 1.949767502271D-01
    1.940876245499D-06 1.070318161510D-03 3.175809979439D-06 5.153707641602D+03
    1.152000000000D+05 1.676380634308D-08 8.363337437202D-01 4.470348358154D-08
    9.651247124039D-01 3.207500000000D+02 2.774289911671D+00-8.343561397339D-09
    6.535986335487D-11 1.000000000000D+00 2.125000000000D+03 0.000000000000D+00
    2.000000000000D+00 0.000000000000D+00-8.381903171539D-09 6.800000000000D+02
    1.152000000000D+05
18 20  9 28 10  0  0.0 2.981238067150D-04 6.480149750132D-12 0.000000000000D+00
    1.690000000000D+02 4.803125000000D+01 4.799128650035D-09 1.244362951706D+00
    2.454966306686D-06 1.071233884431D-03 2.603977918625D-06 5.153709974289D+03
    1.224000000000D+05-4.284083843231D-08 8.362728673102D-01-8.195638656616D-08
    9.651247489769D-01 3.272812500000D+02 2.775064951040D+00-8.476781943045D-09
    1.078616362893D-10 1.000000000000D+00 2.125000000000D+03 0.000000000000D+00
    2.000000000000D+00 0.000000000000D+00-8.381903171539D-09 6.810000000000D+02
    1.224000000000D+05
20 20  9 28  6  0  0.0 5.265888758004D-04-1.136868377216D-13 0.000000000000D+00
    8.900000000000D+01-8.468750000000D+01 5.058067742425D-09-1.764513067143D+00
   -4.386529326439D-06 5.672827130184D-03 5.075708031654D-06 5.153663364410D+03
    1.080000000000D+05-9.685754776001D-08 1.723085121617D+00-2.980232238770D-08
    9.350418399487D-01 2.693125000000D+02 2.716272447330D+00-8.481424451645D-09
   -1.592923432048D-10 1.000000000000D+00 2.125000000000D+03 0.000000000000D+00
    2.000000000000D+00 0.000000000000D+00-8.847564458847D-09 8.900000000000D+01
    1.080000000000D+05
20 20  9 28  7 59 44.0 5.265879444778D-04-1.136868377216D-13 0.000000000000D+00
    0.000000000000D+00-8.896875000000D+01 5.155571969340D-09-7.169658882785D-01
   -4.634261131287D-06 5.672346218489D-03 4.583969712257D-06 5.153659906387D+03
    1.151840000000D+05-3.539025783539D-08 1.723024931316D+00-2.384185791016D-07
    9.350403214397D-01 2.817500000000D+02 2.716583659745D+00-8.498925119227D-09
   -3.110843804777D-10 1.000000000000D+00 2.125000000000D+03 0.000000000000D+00
    2.000000000000D+00 0.000000000000D+00-8.847564458847D-09 0.000000000000D+00
    1.151840000000D+05
20 20  9 28  8  0  0.0 5.265879444778D-04-1.136868377216D-13 0.000000000000D+00
    1.000000000000D+02-8.896875000000D+01 5.155929017064D-09-7.146317498180D-01
   -4.634261131287D-06 5.672346567735D-03 4.583969712257D-06 5.153659908295D+03
    1.152000000000D+05-3.539025783539D-08 1.723024783561D+00-2.384185791016D-07
    9.350403141251D-01 2.817500000000D+02 2.716583264757D+00-8.498925119227D-09
   -3.114415392247D-10 1.000000000000D+00 2.125000000000D+03 0.000000000000D+00
    2.000000000000D+00 0.000000000000D+00-8.847564458847D-09 1.000000000000D+02
    1.152000000000D+05
20 20  9 28  9 59 44.0 5.265870131552D-04-1.136868377216D-13 0.000000000000D+00
    1.400000000000D+01-1.001250000000D+02 5.303792516287D-09 3.332725858666D-01
   -5.487352609634D-06 5.674032261595D-03 4.211440682411D-06 5.153663139343D+03
    1.223840000000D+05 1.229345798492D-07 1.722963879356D+00-9.313225746155D-09
    9.350367270500D-01 2.867812500000D+02 2.716538202491D+00-8.707505827488D-09
   -4.553760979409D-10 1.000000000000D+00 2.125000000000D+03 0.000000000000D+00
    2.000000000000D+00 0.000000000000D+00-8.847564458847D-09 1.400000000000D+01
    1.223840000000D+05
20 20  9 28 12  0  0.0 5.265860818326D-04-1.136868377216D-13 0.000000000000D+00
    1.500000000000D+01-9.862500000000D+01 5.392367441459D-09 1.385768638118D+00
   -5.064532160759D-06 5.674072424881D-03 3.937631845474D-06 5.153663457870D+03
    1.296000000000D+05 9.126961231232D-08 1.722901237204D+00 4.097819328308D-08
    9.350334881493D-01 2.864375000000D+02 2.716569209040D+00-8.678576080001D-09
   -4.771627537536D-10 1.000000000000D+00 2.125000000000D+03 0.000000000000D+00
    2.000000000000D+00 0.000000000000D+00-8.847564458847D-09 1.500000000000D+01
    1.296000000000D+05
21 20  9 28  8  0  0.0 5.196500569582D-05 4.092726157978D-12 0.000000000000D+00
    7.400000000000D+01 5.856250000000D+01 4.820200683042D-09 2.804994392647D+00
    3.071501851082D-06 2.380206948146D-02 2.866610884666D-06 5.155029695511D+03
    1.152000000000D+05 4.824250936508D-07 7.437015237079D-01 8.940696716309D-08
    9.544986504029D-01 3.140000000000D+02-1.284353079901D+00-8.102837512070D-09
    6.500270460785D-11 1.000000000000D+00 2.125000000000D+03 0.000000000000D+00
    2.000000000000D+00 0.000000000000D+00-1.024454832077D-08 7.400000000000D+01
    1.152000000000D+05
21 20  9 28 10  0  0.0 5.199434235692D-05 4.092726157978D-12 0.000000000000D+00
    7.500000000000D+01 6.737500000000D+01 4.742697345961D-09-2.428852503662D+00
    3.753229975700D-06 2.380328904837D-02 2.704560756683D-06 5.155027353287D+03
    1.224000000000D+05 1.639127731323D-07 7.436421716585D-01 3.073364496231D-07
    9.545006355827D-01 3.173750000000D+02-1.284335725304D+00-7.987475569848D-09
    3.289422623176D-10 1.000000000000D+00 2.125000000000D+03 0.000000000000D+00
    2.000000000000D+00 0.000000000000D+00-1.024454832077D-08 7.500000000000D+01
    1.224000000000D+05
21 20  9 28 12  0  0.0 5.202367901802D-05 4.092726157978D-12 0.000000000000D+00
    7.600000000000D+01 6.978125000000D+01 5.016637327770D-09-1.379583408775D+00
    4.010275006294D-06 2.380403154530D-02 4.235655069351D-06 5.155023180008D+03
    1.296000000000D+05-5.345791578293D-07 7.435826864836D-01 3.799796104431D-07
    9.544998763283D-01 3.014687500000D+02-1.284247425032D+00-8.653217697940D-09
    3.157274441890D-10 1.000000000000D+00 2.125000000000D+03 0.000000000000D+00
    2.000000000000D+00 0.000000000000D+00-1.024454832077D-08 7.600000000000D+01
    1.296000000000D+05
22 20  9 28 12  0  0.0-7.495507597923D-04 4.320099833421D-12 0.000000000000D+00
    1.900000000000D+01-9.150000000000D+01 5.334507946486D-09 3.082761683912D+00
   -4.729256033897D-06 6.727405590937D-03 4.326924681664D-06 5.153724300385D+03
    1.296000000000D+05 7.264316082001D-08 1.769979737458D+00 8.381903171539D-08
    9.317495457371D-01 2.785312500000D+02-1.090123302960D+00-8.474995816243D-09
   -3.450143781780D-10 1.000000000000D+00 2.125000000000D+03 0.000000000000D+00
    2.000000000000D+00 0.000000000000D+00-1.816079020500D-08 1.900000000000D+01
    1.296000000000D+05
24 20  9 28  6  0  0.0-1.910887658596D-05-4.547473508865D-13 0.000000000000D+00
    3.900000000000D+01 3.993750000000D+01 5.473799635780D-09-9.432259010762D-01
    2.225860953331D-06 1.015542307869D-02 5.230307579041D-06 5.153629076004D+03
    1.080000000000D+05 1.974403858185D-07-2.392617378963D+00 1.098960638046D-07
    9.359704549949D-01 2.639375000000D+02 6.800395772123D-01-8.582142996261D-09
    3.689439309618D-10 1.000000000000D+00 2.125000000000D+03 0.000000000000D+00
    2.000000000000D+00 0.000000000000D+00 2.793967723846D-09 3.900000000000D+01
    1.080000000000D+05
24 20  9 28  8  0  0.0-1.911260187626D-05-4.547473508865D-13 0.000000000000D+00
    4.000000000000D+01 4.125000000000D+01 5.474156683505D-09 1.069802045435D-01
    2.214685082436D-06 1.015546603594D-02 5.466863512993D-06 5.153629083633D+03
    1.152000000000D+05 5.029141902924D-08-2.392679646608D+00 1.564621925354D-07
    9.359726800933D-01 2.631875000000D+02 6.800487277649D-01-8.671789508696D-09
    3.546576365920D-10 1.000000000000D+00 2.125000000000D+03 0.000000000000D+00
    2.000000000000D+00 0.000000000000D+00 2.793967723846D-09 4.000000000000D+01
    1.152000000000D+05
24 20  9 28 10  0  0.0-1.911586150527D-05-4.547473508865D-13 0.000000000000D+00
    4.200000000000D+01 4.609375000000D+01 5.370937916638D-09 1.157123787970D+00
    2.367421984673D-06 1.015651028138D-02 5.740672349930D-06 5.153631507874D+03
    1.224000000000D+05-9.126961231232D-08-2.392741219367D+00 8.381903171539D-08
    9.359748715446D-01 2.557500000000D+02 6.801185952694D-01-8.618930458226D-09
    2.407243016034D-10 1.000000000000D+00 2.125000000000D+03 0.000000000000D+00
    2.000000000000D+00 0.000000000000D+00 2.793967723846D-09 4.200000000000D+01
    1.224000000000D+05
24 20  9 28 12  0  0.0-1.911958679557D-05-4.547473508865D-13 0.000000000000D+00
    4.300000000000D+01 4.615625000000D+01 5.282005943741D-09 2.207336296783D+00
    2.317130565643D-06 1.015652075876D-02 5.740672349930D-06 5.153631509781D+03
    1.296000000000D+05-1.564621925354D-07-2.392803570399D+00-1.378357410431D-07
    9.359775325926D-01 2.556562500000D+02 6.801191175312D-01-8.447495147834D-09
    3.435857431899D-10 1.000000000000D+00 2.125000000000D+03 0.000000000000D+00
    2.000000000000D+00 0.000000000000D+00 2.793967723846D-09 4.300000000000D+01
    1.296000000000D+05
25 20  9 28  4  0  0.0 5.550356581807D-05 5.684341886081D-12 0.000000000000D+00
    4.200000000000D+01-2.368750000000D+01 4.550189558472D-09 2.341964697739D+00
   -1.367181539536D-06 9.143643779680D-03 7.562339305878D-06 5.153730653763D+03
    1.008000000000D+05-6.891787052155D-08-1.280465691096D+00-1.452863216400D-07
    9.637230320754D-01 2.343750000000D+02 9.310552799267D-01-7.918544042695D-09
   -4.510902207322D-10 1.000000000000D+00 2.125000000000D+03 0.000000000000D+00
    2.000000000000D+00 0.000000000000D+00 5.587935447693D-09 4.200000000000D+01
    1.008000000000D+05
